[{"OBJECT_NAME":"SDA_1674","OBJECT_ID":"2025-230L","EPOCH":"2026-03-09T17:39:14.953536","MEAN_MOTION":13.85421025,"ECCENTRICITY":0.00045935,"INCLINATION":81.3001,"RA_OF_ASC_NODE":303.8213,"ARG_OF_PERICENTER":113.5479,"MEAN_ANOMALY":246.6161,"EPHEMERIS_TYPE":0,"CLASSIFICATION_TYPE":"U","NORAD_CAT_ID":65984,"ELEMENT_SET_NO":999,"REV_AT_EPOCH":2005,"BSTAR":0.00028416236,"MEAN_MOTION_DOT":3.35e-6,"MEAN_MOTION_DDOT":0},{"OBJECT_NAME":"THOR ABLESTAR DEB","OBJECT_ID":"1961-015NA","EPOCH":"2026-03-04T22:14:41.905824","MEAN_MOTION":14.06000406,"ECCENTRICITY":0.01101061,"INCLINATION":66.7148,"RA_OF_ASC_NODE":266.7958,"ARG_OF_PERICENTER":102.9286,"MEAN_ANOMALY":258.4124,"EPHEMERIS_TYPE":0,"CLASSIFICATION_TYPE":"U","NORAD_CAT_ID":48822,"ELEMENT_SET_NO":999,"REV_AT_EPOCH":63009,"BSTAR":0.00014773965,"MEAN_MOTION_DOT":1.76e-6,"MEAN_MOTION_DDOT":0}]
